[
    {
        "Altitude(m)": 590067.922109136,
        "Argument of Periapsis(deg)": -0.015068773855314936,
        "Eccentricity": 0.0,
        "Inclination(deg)": 97.0,
        "Latitude(deg)": -72.16678291575023,
        "Longitude(deg)": -153.8615135837323,
        "Mean Anomaly(deg)": -106.57670448720833,
        "RAAN(deg)": 150.00396470241236,
        "Satellite Name": "Starlink Shell 3 1911",
        "Satellite Number": 1911,
        "Semi-Major Axis(m)": 6938478.169268562,
        "Time(s)": 380
    },
    {
        "Altitude(m)": 590194.935218787,
        "Argument of Periapsis(deg)": -0.015465320535717962,
        "Eccentricity": 0.0,
        "Inclination(deg)": 97.0,
        "Latitude(deg)": -72.73491245214898,
        "Longitude(deg)": -154.73071765849514,
        "Mean Anomaly(deg)": -105.95122828950326,
        "RAAN(deg)": 150.00406903668636,
        "Satellite Name": "Starlink Shell 3 1911",
        "Satellite Number": 1911,
        "Semi-Major Axis(m)": 6938478.169268562,
        "Time(s)": 390
    },
    {
        "Altitude(m)": 590317.4977948288,
        "Argument of Periapsis(deg)": -0.015861867216120987,
        "Eccentricity": 0.0,
        "Inclination(deg)": 97.0,
        "Latitude(deg)": -73.29938785137419,
        "Longitude(deg)": -155.65421498174663,
        "Mean Anomaly(deg)": -105.32575209179828,
        "RAAN(deg)": 150.0041733709604,
        "Satellite Name": "Starlink Shell 3 1911",
        "Satellite Number": 1911,
        "Semi-Major Axis(m)": 6938478.169268562,
        "Time(s)": 400
    },
    {
        "Altitude(m)": 590435.5602560922,
        "Argument of Periapsis(deg)": -0.01625841389652401,
        "Eccentricity": 0.0,
        "Inclination(deg)": 97.0,
        "Latitude(deg)": -73.85983253696897,
        "Longitude(deg)": -156.63729851164484,
        "Mean Anomaly(deg)": -104.70027589409321,
        "RAAN(deg)": 150.0042777052344,
        "Satellite Name": "Starlink Shell 3 1911",
        "Satellite Number": 1911,
        "Semi-Major Axis(m)": 6938478.169268562,
        "Time(s)": 410
    },
    {
        "Altitude(m)": 590549.0748334189,
        "Argument of Periapsis(deg)": -0.016654960576927034,
        "Eccentricity": 0.0,
        "Inclination(deg)": 97.0,
        "Latitude(deg)": -74.41581846005029,
        "Longitude(deg)": -157.68590255216898,
        "Mean Anomaly(deg)": -104.07479969638813,
        "RAAN(deg)": 150.00438203950839,
        "Satellite Name": "Starlink Shell 3 1911",
        "Satellite Number": 1911,
        "Semi-Major Axis(m)": 6938478.169268562,
        "Time(s)": 420
    },
    {
        "Altitude(m)": 590657.9955899826,
        "Argument of Periapsis(deg)": -0.01705150725733006,
        "Eccentricity": 0.0,
        "Inclination(deg)": 97.0,
        "Latitude(deg)": -74.96685771587592,
        "Longitude(deg)": -158.80668719148204,
        "Mean Anomaly(deg)": -103.44932349868311,
        "RAAN(deg)": 150.00448637378238,
        "Satellite Name": "Starlink Shell 3 1911",
        "Satellite Number": 1911,
        "Semi-Major Axis(m)": 6938478.169268562,
        "Time(s)": 430
    },
    {
        "Altitude(m)": 590762.2784407918,
        "Argument of Periapsis(deg)": -0.017448053937733084,
        "Eccentricity": 0.0,
        "Inclination(deg)": 97.0,
        "Latitude(deg)": -75.51239264756654,
        "Longitude(deg)": -160.00713234969052,
        "Mean Anomaly(deg)": -102.82384730097802,
        "RAAN(deg)": 150.0045907080564,
        "Satellite Name": "Starlink Shell 3 1911",
        "Satellite Number": 1911,
        "Semi-Major Axis(m)": 6938478.169268562,
        "Time(s)": 440
    },
    {
        "Altitude(m)": 590861.8811713896,
        "Argument of Periapsis(deg)": -0.017844600618136107,
        "Eccentricity": 0.0,
        "Inclination(deg)": 97.0,
        "Latitude(deg)": -76.05178416630362,
        "Longitude(deg)": -161.29564260467072,
        "Mean Anomaly(deg)": -102.19837110327303,
        "RAAN(deg)": 150.0046950423304,
        "Satellite Name": "Starlink Shell 3 1911",
        "Satellite Number": 1911,
        "Semi-Major Axis(m)": 6938478.169268562,
        "Time(s)": 450
    },
    {
        "Altitude(m)": 590956.7634557728,
        "Argument of Periapsis(deg)": -0.018241147298539134,
        "Eccentricity": 0.0,
        "Inclination(deg)": 97.0,
        "Latitude(deg)": -76.58429798361915,
        "Longitude(deg)": -162.68165840779355,
        "Mean Anomaly(deg)": -101.572894905568,
        "RAAN(deg)": 150.0047993766044,
        "Satellite Name": "Starlink Shell 3 1911",
        "Satellite Number": 1911,
        "Semi-Major Axis(m)": 6938478.169268562,
        "Time(s)": 460
    },
    {
        "Altitude(m)": 591046.8868734868,
        "Argument of Periapsis(deg)": -0.018637693978942157,
        "Eccentricity": 0.0,
        "Inclination(deg)": 97.0,
        "Latitude(deg)": -77.10908842523133,
        "Longitude(deg)": -164.17577219652725,
        "Mean Anomaly(deg)": -100.9474187078629,
        "RAAN(deg)": 150.0049037108784,
        "Satellite Name": "Starlink Shell 3 1911",
        "Satellite Number": 1911,
        "Semi-Major Axis(m)": 6938478.169268562,
        "Time(s)": 470
    },
    {
        "Altitude(m)": 591132.2149258917,
        "Argument of Periapsis(deg)": -0.019034240659345183,
        "Eccentricity": 0.0,
        "Inclination(deg)": 97.0,
        "Latitude(deg)": -77.6251794876848,
        "Longitude(deg)": -165.78984534499952,
        "Mean Anomaly(deg)": -100.32194251015791,
        "RAAN(deg)": 150.00500804515244,
        "Satellite Name": "Starlink Shell 3 1911",
        "Satellite Number": 1911,
        "Semi-Major Axis(m)": 6938478.169268562,
        "Time(s)": 480
    },
    {
        "Altitude(m)": 591212.7130516111,
        "Argument of Periapsis(deg)": -0.019430787339748207,
        "Eccentricity": 0.0,
        "Inclination(deg)": 97.0,
        "Latitude(deg)": -78.1314428261274,
        "Longitude(deg)": -167.53711346030317,
        "Mean Anomaly(deg)": -99.69646631245278,
        "RAAN(deg)": 150.00511237942644,
        "Satellite Name": "Starlink Shell 3 1911",
        "Satellite Number": 1911,
        "Semi-Major Axis(m)": 6938478.169268562,
        "Time(s)": 490
    },
    {
        "Altitude(m)": 591288.3486411829,
        "Argument of Periapsis(deg)": -0.019827334020151237,
        "Eccentricity": 0.0,
        "Inclination(deg)": 97.0,
        "Latitude(deg)": -78.62657245162792,
        "Longitude(deg)": -169.432266319112,
        "Mean Anomaly(deg)": -99.0709901147478,
        "RAAN(deg)": 150.00521671370046,
        "Satellite Name": "Starlink Shell 3 1911",
        "Satellite Number": 1911,
        "Semi-Major Axis(m)": 6938478.169268562,
        "Time(s)": 500
    },
    {
        "Altitude(m)": 591359.091050817,
        "Argument of Periapsis(deg)": -0.020223880700554257,
        "Eccentricity": 0.0,
        "Inclination(deg)": 97.0,
        "Latitude(deg)": -79.10905611236251,
        "Longitude(deg)": -171.4914804975237,
        "Mean Anomaly(deg)": -98.44551391704279,
        "RAAN(deg)": 150.00532104797446,
        "Satellite Name": "Starlink Shell 3 1911",
        "Satellite Number": 1911,
        "Semi-Major Axis(m)": 6938478.169268562,
        "Time(s)": 510
    },
    {
        "Altitude(m)": 591424.9116153764,
        "Argument of Periapsis(deg)": -0.020620427380957283,
        "Eccentricity": 0.0,
        "Inclination(deg)": 97.0,
        "Latitude(deg)": -79.5771436979516,
        "Longitude(deg)": -173.7323668315422,
        "Mean Anomaly(deg)": -97.82003771933766,
        "RAAN(deg)": 150.0054253822485,
        "Satellite Name": "Starlink Shell 3 1911",
        "Satellite Number": 1911,
        "Semi-Major Axis(m)": 6938478.169268562,
        "Time(s)": 520
    },
    {
        "Altitude(m)": 591485.7836604778,
        "Argument of Periapsis(deg)": -0.021016974061360306,
        "Eccentricity": 0.0,
        "Inclination(deg)": 97.0,
        "Latitude(deg)": -80.02881362822649,
        "Longitude(deg)": -176.17378445763876,
        "Mean Anomaly(deg)": -97.19456152163266,
        "RAAN(deg)": 150.00552971652246,
        "Satellite Name": "Starlink Shell 3 1911",
        "Satellite Number": 1911,
        "Semi-Major Axis(m)": 6938478.169268562,
        "Time(s)": 530
    },
    {
        "Altitude(m)": 591541.6825137644,
        "Argument of Periapsis(deg)": -0.021413520741763333,
        "Eccentricity": 0.0,
        "Inclination(deg)": 97.0,
        "Latitude(deg)": -80.46173917911563,
        "Longitude(deg)": -178.835455043833,
        "Mean Anomaly(deg)": -96.5690853239276,
        "RAAN(deg)": 150.0056340507965,
        "Satellite Name": "Starlink Shell 3 1911",
        "Satellite Number": 1911,
        "Semi-Major Axis(m)": 6938478.169268562,
        "Time(s)": 540
    },
    {
        "Altitude(m)": 591592.5855152988,
        "Argument of Periapsis(deg)": -0.021810067422166356,
        "Eccentricity": 0.0,
        "Inclination(deg)": 97.0,
        "Latitude(deg)": -80.87325818169116,
        "Longitude(deg)": 178.26271301765465,
        "Mean Anomaly(deg)": -95.94360912622253,
        "RAAN(deg)": 150.0057383850705,
        "Satellite Name": "Starlink Shell 3 1911",
        "Satellite Number": 1911,
        "Semi-Major Axis(m)": 6938478.169268562,
        "Time(s)": 550
    },
    {
        "Altitude(m)": 591638.4720271726,
        "Argument of Periapsis(deg)": -0.022206614102569383,
        "Eccentricity": 0.0,
        "Inclination(deg)": 97.0,
        "Latitude(deg)": -81.26035159826183,
        "Longitude(deg)": 175.10169129048413,
        "Mean Anomaly(deg)": -95.31813292851754,
        "RAAN(deg)": 150.0058427193445,
        "Satellite Name": "Starlink Shell 3 1911",
        "Satellite Number": 1911,
        "Semi-Major Axis(m)": 6938478.169268562,
        "Time(s)": 560
    }
]